BRO-1                   
1 44495U 19054A   26187.92141439  .00563718  15775-3  81768-3 0  9993
2 44495  44.9854 169.9464 0008709 109.1044 251.0812 16.04407051382891
BRO-5                   
1 51061U 22002CF  26187.83868407  .00025175  00000+0  47373-3 0  9993
2 51061  97.2983 261.6954 0004506 235.5901 124.4924 15.48527207249299
BRO-6                   
1 52422U 22047AE  26187.81257101  .00035278  00000+0  58488-3 0  9999
2 52422  97.3389 279.2632 0003305 356.0270   4.0956 15.52062905234199
BRO-8                   
1 55011U 23001C   26187.80746900  .00027986  00000+0  49352-3 0  9993
2 55011  97.3189 253.2897 0005758  67.7627 292.4235 15.50355121195243
BRO-11                  
1 58264U 23174J   26187.83495891  .00004377  00000+0  16497-3 0  9993
2 58264  97.3896 264.5002 0011638 133.1996 227.0217 15.27542563147754
BRO-13                  
1 59107U 24043K   26187.88260375  .00000702  00000+0  66769-4 0  9994
2 59107  97.8516 318.9664 0007802 296.4769  63.5652 14.96637915127566
BRO-12                  
1 59108U 24043L   26187.87550634  .00000472  00000+0  46333-4 0  9993
2 59108  97.8507 319.1268 0007043 291.8359  68.2113 14.96884489127587
BRO-14                  
1 60551U 24149CM  26187.72355865  .00000593  00000+0  57624-4 0  9996
2 60551  97.6867 263.1504 0007521  41.8338 318.3456 14.96223834102910
BRO-15                  
1 60553U 24149CP  26187.70619738  .00002369  00000+0  21496-3 0  9998
2 60553  97.6803 262.7154 0008639  31.9922 328.1822 14.96221512102926
BRO-16                  
1 62654U 25009AX  26187.71074240  .00003293  00000+0  13855-3 0  9999
2 62654  97.4048 267.9557 0001319 171.4141 188.7119 15.24087986 81779
BRO-18                  
1 64550U 25135Y   26187.84279319  .00003401  00000+0  15151-3 0  9996
2 64550  97.4644 302.7227 0002100 126.3901 233.7529 15.22127411 57867
BRO-17                  
1 66672U 25276G   26187.29798373  .00003015  00000+0  15104-3 0  9993
2 66672  97.4180 260.0388 0005181 301.0287  59.0437 15.18120243 33293
BRO-20                  
1 66674U 25276J   26187.67043227  .00003030  00000+0  15103-3 0  9994
2 66674  97.4158 260.3926 0004824 302.8363  57.2406 15.18292830 33353
BRO-19                  
1 68422U 26067G   26187.35228681  .00003190  00000+0  15595-3 0  9992
2 68422  97.4489 145.5358 0002168 117.0134 243.1322 15.18948648 14859
BRO-21                  
1 69007U 26100AD  26187.65774793  .00002440  00000+0  11119-3 0  9998
2 69007  97.4019  85.2331 0007768   0.7387 359.3859 15.21592259  9764
BRO-22                  
1 69504U 26132C   26187.83464884  .00001079  00000+0  91878-4 0  9990
2 69504  97.6835 251.2633 0015665 211.3248 148.7044 14.99791317  3721
