{"fetched_at":"2026-07-07T07:58:23.051Z","source":"https://celestrak.org/NORAD/elements/gp.php?NAME=BRO&FORMAT=JSON","constellation":"unseenlabs","records":[{"OBJECT_NAME":"BRO-1","OBJECT_ID":"2019-054A","EPOCH":"2026-07-06T22:06:50.203296","CLASSIFICATION_TYPE":"U","MEAN_MOTION":16.04407051,"ECCENTRICITY":0.0008709,"INCLINATION":44.9854,"RA_OF_ASC_NODE":169.9464,"ARG_OF_PERICENTER":109.1044,"MEAN_ANOMALY":251.0812,"EPHEMERIS_TYPE":0,"NORAD_CAT_ID":44495,"ELEMENT_SET_NO":999,"REV_AT_EPOCH":38289,"BSTAR":0.00081768,"MEAN_MOTION_DOT":0.00563718,"MEAN_MOTION_DDOT":0.00015775},{"OBJECT_NAME":"BRO-5","OBJECT_ID":"2022-002CF","EPOCH":"2026-07-06T20:07:42.303648","CLASSIFICATION_TYPE":"U","MEAN_MOTION":15.48527207,"ECCENTRICITY":0.0004506,"INCLINATION":97.2983,"RA_OF_ASC_NODE":261.6954,"ARG_OF_PERICENTER":235.5901,"MEAN_ANOMALY":124.4924,"EPHEMERIS_TYPE":0,"NORAD_CAT_ID":51061,"ELEMENT_SET_NO":999,"REV_AT_EPOCH":24929,"BSTAR":0.00047373,"MEAN_MOTION_DOT":0.00025175,"MEAN_MOTION_DDOT":0},{"OBJECT_NAME":"BRO-6","OBJECT_ID":"2022-047AE","EPOCH":"2026-07-06T19:30:06.135264","CLASSIFICATION_TYPE":"U","MEAN_MOTION":15.52062905,"ECCENTRICITY":0.0003305,"INCLINATION":97.3389,"RA_OF_ASC_NODE":279.2632,"ARG_OF_PERICENTER":356.027,"MEAN_ANOMALY":4.0956,"EPHEMERIS_TYPE":0,"NORAD_CAT_ID":52422,"ELEMENT_SET_NO":999,"REV_AT_EPOCH":23419,"BSTAR":0.00058488,"MEAN_MOTION_DOT":0.00035278,"MEAN_MOTION_DDOT":0},{"OBJECT_NAME":"BRO-8","OBJECT_ID":"2023-001C","EPOCH":"2026-07-06T19:22:45.321600","CLASSIFICATION_TYPE":"U","MEAN_MOTION":15.50355121,"ECCENTRICITY":0.0005758,"INCLINATION":97.3189,"RA_OF_ASC_NODE":253.2897,"ARG_OF_PERICENTER":67.7627,"MEAN_ANOMALY":292.4235,"EPHEMERIS_TYPE":0,"NORAD_CAT_ID":55011,"ELEMENT_SET_NO":999,"REV_AT_EPOCH":19524,"BSTAR":0.00049352,"MEAN_MOTION_DOT":0.00027986,"MEAN_MOTION_DDOT":0},{"OBJECT_NAME":"BRO-11","OBJECT_ID":"2023-174J","EPOCH":"2026-07-06T20:02:20.449824","CLASSIFICATION_TYPE":"U","MEAN_MOTION":15.27542563,"ECCENTRICITY":0.0011638,"INCLINATION":97.3896,"RA_OF_ASC_NODE":264.5002,"ARG_OF_PERICENTER":133.1996,"MEAN_ANOMALY":227.0217,"EPHEMERIS_TYPE":0,"NORAD_CAT_ID":58264,"ELEMENT_SET_NO":999,"REV_AT_EPOCH":14775,"BSTAR":0.00016497,"MEAN_MOTION_DOT":0.00004377,"MEAN_MOTION_DDOT":0},{"OBJECT_NAME":"BRO-13","OBJECT_ID":"2024-043K","EPOCH":"2026-07-06T21:10:56.964000","CLASSIFICATION_TYPE":"U","MEAN_MOTION":14.96637915,"ECCENTRICITY":0.0007802,"INCLINATION":97.8516,"RA_OF_ASC_NODE":318.9664,"ARG_OF_PERICENTER":296.4769,"MEAN_ANOMALY":63.5652,"EPHEMERIS_TYPE":0,"NORAD_CAT_ID":59107,"ELEMENT_SET_NO":999,"REV_AT_EPOCH":12756,"BSTAR":0.000066769,"MEAN_MOTION_DOT":0.00000702,"MEAN_MOTION_DDOT":0},{"OBJECT_NAME":"BRO-12","OBJECT_ID":"2024-043L","EPOCH":"2026-07-06T21:00:43.747776","CLASSIFICATION_TYPE":"U","MEAN_MOTION":14.96884489,"ECCENTRICITY":0.0007043,"INCLINATION":97.8507,"RA_OF_ASC_NODE":319.1268,"ARG_OF_PERICENTER":291.8359,"MEAN_ANOMALY":68.2113,"EPHEMERIS_TYPE":0,"NORAD_CAT_ID":59108,"ELEMENT_SET_NO":999,"REV_AT_EPOCH":12758,"BSTAR":0.000046333,"MEAN_MOTION_DOT":0.00000472,"MEAN_MOTION_DDOT":0},{"OBJECT_NAME":"BRO-14","OBJECT_ID":"2024-149CM","EPOCH":"2026-07-06T17:21:55.467360","CLASSIFICATION_TYPE":"U","MEAN_MOTION":14.96223834,"ECCENTRICITY":0.0007521,"INCLINATION":97.6867,"RA_OF_ASC_NODE":263.1504,"ARG_OF_PERICENTER":41.8338,"MEAN_ANOMALY":318.3456,"EPHEMERIS_TYPE":0,"NORAD_CAT_ID":60551,"ELEMENT_SET_NO":999,"REV_AT_EPOCH":10291,"BSTAR":0.000057624,"MEAN_MOTION_DOT":0.00000593,"MEAN_MOTION_DDOT":0},{"OBJECT_NAME":"BRO-15","OBJECT_ID":"2024-149CP","EPOCH":"2026-07-06T16:56:55.453632","CLASSIFICATION_TYPE":"U","MEAN_MOTION":14.96221512,"ECCENTRICITY":0.0008639,"INCLINATION":97.6803,"RA_OF_ASC_NODE":262.7154,"ARG_OF_PERICENTER":31.9922,"MEAN_ANOMALY":328.1822,"EPHEMERIS_TYPE":0,"NORAD_CAT_ID":60553,"ELEMENT_SET_NO":999,"REV_AT_EPOCH":10292,"BSTAR":0.00021496,"MEAN_MOTION_DOT":0.00002369,"MEAN_MOTION_DDOT":0},{"OBJECT_NAME":"BRO-16","OBJECT_ID":"2025-009AX","EPOCH":"2026-07-06T17:03:28.143360","CLASSIFICATION_TYPE":"U","MEAN_MOTION":15.24087986,"ECCENTRICITY":0.0001319,"INCLINATION":97.4048,"RA_OF_ASC_NODE":267.9557,"ARG_OF_PERICENTER":171.4141,"MEAN_ANOMALY":188.7119,"EPHEMERIS_TYPE":0,"NORAD_CAT_ID":62654,"ELEMENT_SET_NO":999,"REV_AT_EPOCH":8177,"BSTAR":0.00013855,"MEAN_MOTION_DOT":0.00003293,"MEAN_MOTION_DDOT":0},{"OBJECT_NAME":"BRO-18","OBJECT_ID":"2025-135Y","EPOCH":"2026-07-06T20:13:37.331616","CLASSIFICATION_TYPE":"U","MEAN_MOTION":15.22127411,"ECCENTRICITY":0.00021,"INCLINATION":97.4644,"RA_OF_ASC_NODE":302.7227,"ARG_OF_PERICENTER":126.3901,"MEAN_ANOMALY":233.7529,"EPHEMERIS_TYPE":0,"NORAD_CAT_ID":64550,"ELEMENT_SET_NO":999,"REV_AT_EPOCH":5786,"BSTAR":0.00015151,"MEAN_MOTION_DOT":0.00003401,"MEAN_MOTION_DDOT":0},{"OBJECT_NAME":"BRO-17","OBJECT_ID":"2025-276G","EPOCH":"2026-07-06T07:09:05.794272","CLASSIFICATION_TYPE":"U","MEAN_MOTION":15.18120243,"ECCENTRICITY":0.0005181,"INCLINATION":97.418,"RA_OF_ASC_NODE":260.0388,"ARG_OF_PERICENTER":301.0287,"MEAN_ANOMALY":59.0437,"EPHEMERIS_TYPE":0,"NORAD_CAT_ID":66672,"ELEMENT_SET_NO":999,"REV_AT_EPOCH":3329,"BSTAR":0.00015104,"MEAN_MOTION_DOT":0.00003015,"MEAN_MOTION_DDOT":0},{"OBJECT_NAME":"BRO-20","OBJECT_ID":"2025-276J","EPOCH":"2026-07-06T16:05:25.348128","CLASSIFICATION_TYPE":"U","MEAN_MOTION":15.1829283,"ECCENTRICITY":0.0004824,"INCLINATION":97.4158,"RA_OF_ASC_NODE":260.3926,"ARG_OF_PERICENTER":302.8363,"MEAN_ANOMALY":57.2406,"EPHEMERIS_TYPE":0,"NORAD_CAT_ID":66674,"ELEMENT_SET_NO":999,"REV_AT_EPOCH":3335,"BSTAR":0.00015103,"MEAN_MOTION_DOT":0.0000303,"MEAN_MOTION_DDOT":0},{"OBJECT_NAME":"BRO-19","OBJECT_ID":"2026-067G","EPOCH":"2026-07-06T08:27:17.580384","CLASSIFICATION_TYPE":"U","MEAN_MOTION":15.18948648,"ECCENTRICITY":0.0002168,"INCLINATION":97.4489,"RA_OF_ASC_NODE":145.5358,"ARG_OF_PERICENTER":117.0134,"MEAN_ANOMALY":243.1322,"EPHEMERIS_TYPE":0,"NORAD_CAT_ID":68422,"ELEMENT_SET_NO":999,"REV_AT_EPOCH":1485,"BSTAR":0.00015595,"MEAN_MOTION_DOT":0.0000319,"MEAN_MOTION_DDOT":0},{"OBJECT_NAME":"BRO-21","OBJECT_ID":"2026-100AD","EPOCH":"2026-07-06T15:47:09.421152","CLASSIFICATION_TYPE":"U","MEAN_MOTION":15.21592259,"ECCENTRICITY":0.0007768,"INCLINATION":97.4019,"RA_OF_ASC_NODE":85.2331,"ARG_OF_PERICENTER":0.7387,"MEAN_ANOMALY":359.3859,"EPHEMERIS_TYPE":0,"NORAD_CAT_ID":69007,"ELEMENT_SET_NO":999,"REV_AT_EPOCH":976,"BSTAR":0.00011119,"MEAN_MOTION_DOT":0.0000244,"MEAN_MOTION_DDOT":0},{"OBJECT_NAME":"BRO-22","OBJECT_ID":"2026-132C","EPOCH":"2026-07-06T20:01:53.659776","CLASSIFICATION_TYPE":"U","MEAN_MOTION":14.99791317,"ECCENTRICITY":0.0015665,"INCLINATION":97.6835,"RA_OF_ASC_NODE":251.2633,"ARG_OF_PERICENTER":211.3248,"MEAN_ANOMALY":148.7044,"EPHEMERIS_TYPE":0,"NORAD_CAT_ID":69504,"ELEMENT_SET_NO":999,"REV_AT_EPOCH":372,"BSTAR":0.000091878,"MEAN_MOTION_DOT":0.00001079,"MEAN_MOTION_DDOT":0}]}
